[{"OBJECT_NAME":"IRIDIUM 130","OBJECT_ID":"2017-083D","EPOCH":"2026-03-09T21:39:51.158880","MEAN_MOTION":14.3421742,"ECCENTRICITY":0.00018247,"INCLINATION":86.4028,"RA_OF_ASC_NODE":3.7574,"ARG_OF_PERICENTER":90.7485,"MEAN_ANOMALY":269.392,"EPHEMERIS_TYPE":0,"CLASSIFICATION_TYPE":"U","NORAD_CAT_ID":43073,"ELEMENT_SET_NO":999,"REV_AT_EPOCH":42988,"BSTAR":-6.674968e-6,"MEAN_MOTION_DOT":1.0e-8,"MEAN_MOTION_DDOT":0},{"OBJECT_NAME":"COSMOS 783","OBJECT_ID":"1975-112A","EPOCH":"2026-03-09T17:28:10.570368","MEAN_MOTION":14.33746768,"ECCENTRICITY":0.00133223,"INCLINATION":74.0603,"RA_OF_ASC_NODE":184.7072,"ARG_OF_PERICENTER":280.8303,"MEAN_ANOMALY":79.1349,"EPHEMERIS_TYPE":0,"CLASSIFICATION_TYPE":"U","NORAD_CAT_ID":8458,"ELEMENT_SET_NO":999,"REV_AT_EPOCH":62593,"BSTAR":8.9123419e-5,"MEAN_MOTION_DOT":2.22e-6,"MEAN_MOTION_DDOT":0}]
